NORAD_CAT_ID,OBJECT_NAME,OBJECT_TYPE,EPOCH,MEAN_MOTION,ECCENTRICITY,INCLINATION,RA_OF_ASC_NODE,ARG_OF_PERICENTER,MEAN_ANOMALY,BSTAR,MEAN_MOTION_DOT,MEAN_MOTION_DDOT,TLE_LINE0,TLE_LINE1,TLE_LINE2,SEMIMAJOR_AXIS,PERIOD,APOGEE,PERIGEE,DECAYED
53851.0,STARLINK-4755,PAYLOAD,2023-04-12 04:35:23,15.0884016,0.0001276,53.2179,23.637,88.2486,271.8653,6.1637e-05,6.93e-06,0.0,0 STARLINK-4755,1 53851U 22114AK  23102.19124917  .00000693  00000-0  61637-4 0  9999,2 53851  53.2179  23.6370 0001276  88.2486 271.8653 15.08840160 32037,6917.88,95.438,540.628,538.862,0.0
53851.0,STARLINK-4755,PAYLOAD,2023-04-13 01:15:24,15.08842188,0.0001369,53.2181,19.7705,92.7238,267.3911,0.00022217,3.25e-05,0.0,0 STARLINK-4755,1 53851U 22114AK  23103.05237139  .00003250  00000-0  22217-3 0  9998,2 53851  53.2181  19.7705 0001369  92.7238 267.3911 15.08842188 32709,6917.874,95.437,540.686,538.792,0.0
53851.0,STARLINK-4755,PAYLOAD,2023-04-14 04:16:58,15.08849534,0.0001249,53.2175,14.7164,89.5613,270.5522,0.00031053,4.659e-05,0.0,0 STARLINK-4755,1 53851U 22114AK  23104.17845034  .00004659  00000-0  31053-3 0  9993,2 53851  53.2175  14.7164 0001249  89.5613 270.5522 15.08849534 32339,6917.851,95.437,540.58,538.852,0.0
53851.0,STARLINK-4755,PAYLOAD,2023-04-15 02:32:22,15.0885575,0.0001255,53.2177,10.5545,102.5919,257.5214,0.0006274,9.715e-05,0.0,0 STARLINK-4755,1 53851U 22114AK  23105.10581218  .00009715  00000-0  62740-3 0  9993,2 53851  53.2177  10.5545 0001255 102.5919 257.5214 15.08855750 33016,6917.832,95.437,540.565,538.829,0.0
53851.0,STARLINK-4755,PAYLOAD,2023-04-15 21:37:00,15.08846201,0.0001518,53.2171,6.9858,109.7754,250.3402,0.00075956,0.00011823,0.0,0 STARLINK-4755,1 53851U 22114AK  23105.90069521  .00011823  00000-0  75956-3 0  9995,2 53851  53.2171   6.9858 0001518 109.7754 250.3402 15.08846201 32597,6917.861,95.437,540.777,538.676,0.0
53851.0,STARLINK-4755,PAYLOAD,2023-04-16 03:58:32,15.08859846,0.0001596,53.2171,5.7958,105.5213,254.5956,0.00091795,0.00014359,0.0,0 STARLINK-4755,1 53851U 22114AK  23106.16565201  .00014359  00000-0  91795-3 0  9996,2 53851  53.2171   5.7958 0001596 105.5213 254.5956 15.08859846 33179,6917.82,95.436,540.789,538.581,0.0
53851.0,STARLINK-4755,PAYLOAD,2023-04-16 21:27:47,15.08842355,0.0001288,53.217,2.5247,132.2659,227.8442,0.00063583,9.846e-05,0.0,0 STARLINK-4755,1 53851U 22114AK  23106.89429406  .00009846  00000-0  63583-3 0  9991,2 53851  53.2170   2.5247 0001288 132.2659 227.8442 15.08842355 33285,6917.873,95.437,540.629,538.847,0.0
53851.0,STARLINK-4755,PAYLOAD,2023-04-17 02:13:56,15.08846825,0.0001347,53.2171,1.6299,124.3184,235.7936,0.0004327,6.606e-05,0.0,0 STARLINK-4755,1 53851U 22114AK  23107.09301339  .00006606  00000-0  43270-3 0  9990,2 53851  53.2171   1.6299 0001347 124.3184 235.7936 15.08846825 32779,6917.86,95.437,540.656,538.793,0.0
53851.0,STARLINK-4755,PAYLOAD,2023-04-17 16:32:25,15.08828707,0.0001316,53.2175,358.957,106.0377,254.076,0.00060898,9.414e-05,0.0,0 STARLINK-4755,1 53851U 22114AK  23107.68918113  .00009414  00000-0  60898-3 0  9994,2 53851  53.2175 358.9570 0001316 106.0377 254.0760 15.08828707 32868,6917.915,95.438,540.69,538.87,0.0
53851.0,STARLINK-4755,PAYLOAD,2023-04-17 21:18:34,15.08837901,0.0001258,53.2175,358.0658,96.1353,263.9783,0.0003864,5.867e-05,0.0,0 STARLINK-4755,1 53851U 22114AK  23107.88790132  .00005867  00000-0  38640-3 0  9993,2 53851  53.2175 358.0658 0001258  96.1353 263.9783 15.08837901 33438,6917.887,95.438,540.622,538.882,0.0
53851.0,STARLINK-4755,PAYLOAD,2023-04-18 02:04:44,15.0884156,0.0001273,53.2166,357.1723,108.021,252.0921,0.00068794,0.00010678,0.0,0 STARLINK-4755,1 53851U 22114AK  23108.08662039  .00010678  00000-0  68794-3 0  9999,2 53851  53.2166 357.1723 0001273 108.0210 252.0921 15.08841560 33465,6917.876,95.437,540.621,538.86,0.0
53851.0,STARLINK-4755,PAYLOAD,2023-04-18 16:23:12,15.08839627,0.0001082,53.2164,354.4967,86.8529,273.2586,0.00040244,6.123e-05,0.0,0 STARLINK-4755,1 53851U 22114AK  23108.68278572  .00006123  00000-0  40244-3 0  9990,2 53851  53.2164 354.4967 0001082  86.8529 273.2586 15.08839627 33550,6917.882,95.438,540.495,538.998,0.0
53851.0,STARLINK-4755,PAYLOAD,2023-04-19 01:55:31,15.08846363,0.0001099,53.2168,352.7117,92.7333,267.3785,0.00063516,9.837e-05,0.0,0 STARLINK-4755,1 53851U 22114AK  23109.08022440  .00009837  00000-0  63516-3 0  9998,2 53851  53.2168 352.7117 0001099  92.7333 267.3785 15.08846363 33616,6917.861,95.437,540.486,538.966,0.0
53851.0,STARLINK-4755,PAYLOAD,2023-04-20 01:46:17,15.0885901,0.0001189,53.2162,348.2496,102.0299,258.0827,0.00056067,8.651e-05,0.0,0 STARLINK-4755,1 53851U 22114AK  23110.07381766  .00008651  00000-0  56067-3 0  9994,2 53851  53.2162 348.2496 0001189 102.0299 258.0827 15.08859010 33769,6917.822,95.436,540.51,538.865,0.0
53851.0,STARLINK-4755,PAYLOAD,2023-04-21 01:37:05,15.0884408,0.0001229,53.2175,343.7895,122.7356,237.3754,0.00011567,1.554e-05,0.0,0 STARLINK-4755,1 53851U 22114AK  23111.06741945  .00001554  00000-0  11567-3 0  9994,2 53851  53.2175 343.7895 0001229 122.7356 237.3754 15.08844080 33371,6917.868,95.437,540.583,538.883,0.0
53851.0,STARLINK-4755,PAYLOAD,2023-04-21 07:58:37,15.08844358,0.0001015,53.2173,342.6003,93.0136,267.0972,0.00013784,1.907e-05,0.0,0 STARLINK-4755,1 53851U 22114AK  23111.33238070  .00001907  00000-0  13784-3 0  9999,2 53851  53.2173 342.6003 0001015  93.0136 267.0972 15.08844358 33951,6917.867,95.437,540.434,539.03,0.0
53851.0,STARLINK-4755,PAYLOAD,2023-04-22 01:27:52,15.08843938,0.0001097,53.2181,339.3296,101.0634,259.0482,0.00023101,3.391e-05,0.0,0 STARLINK-4755,1 53851U 22114AK  23112.06102207  .00003391  00000-0  23101-3 0  9995,2 53851  53.2181 339.3296 0001097 101.0634 259.0482 15.08843938 33523,6917.868,95.437,540.492,538.974,0.0
53851.0,STARLINK-4755,PAYLOAD,2023-04-22 22:07:52,15.08846667,8.88e-05,53.2152,335.4655,98.8126,261.2967,0.00020822,3.028e-05,0.0,0 STARLINK-4755,1 53851U 22114AK  23112.92214016  .00003028  00000-0  20822-3 0  9996,2 53851  53.2152 335.4655 0000888  98.8126 261.2967 15.08846667 34192,6917.86,95.437,540.339,539.111,0.0
53851.0,STARLINK-4755,PAYLOAD,2023-04-23 14:01:44,15.0883943,7.81e-05,53.2161,332.4935,99.7966,260.3115,8.7718e-05,1.109e-05,0.0,0 STARLINK-4755,1 53851U 22114AK  23113.58454376  .00001109  00000-0  87718-4 0  9990,2 53851  53.2161 332.4935 0000781  99.7966 260.3115 15.08839430 34290,6917.882,95.438,540.287,539.207,0.0
53851.0,STARLINK-4755,PAYLOAD,2023-04-23 15:37:07,15.08837029,8.27e-05,53.217,332.1963,106.3732,253.7351,2.5204e-05,1.13e-06,0.0,0 STARLINK-4755,1 53851U 22114AK  23113.65078467  .00000113  00000-0  25204-4 0  9997,2 53851  53.2170 332.1963 0000827 106.3732 253.7351 15.08837029 34307,6917.889,95.438,540.327,539.182,0.0
53851.0,STARLINK-4755,PAYLOAD,2023-04-23 23:34:02,15.08850915,8e-05,53.217,330.7084,108.3432,251.7647,0.0002176,3.178e-05,0.0,0 STARLINK-4755,1 53851U 22114AK  23113.98197904  .00003178  00000-0  21760-3 0  9997,2 53851  53.2170 330.7084 0000800 108.3432 251.7647 15.08850915 34355,6917.847,95.437,540.265,539.159,0.0
53851.0,STARLINK-4755,PAYLOAD,2023-04-25 02:35:34,15.08883285,0.0001112,53.2158,325.6526,77.649,282.4627,0.00078634,0.00012264,0.0,0 STARLINK-4755,1 53851U 22114AK  23115.10803946  .00012264  00000-0  78634-3 0  9991,2 53851  53.2158 325.6526 0001112  77.6490 282.4627 15.08883285 34528,6917.748,95.435,540.382,538.844,0.0
53851.0,STARLINK-4755,PAYLOAD,2023-04-26 02:26:24,15.08805049,0.0001027,53.2161,321.1923,87.8179,272.2931,-0.00039202,-6.515e-05,0.0,0 STARLINK-4755,1 53851U 22114AK  23116.10167464 -.00006515  00000-0 -39202-3 0  9992,2 53851  53.2161 321.1923 0001027  87.8179 272.2931 15.08805049 34130,6917.987,95.44,540.563,539.142,0.0
53851.0,STARLINK-4755,PAYLOAD,2023-04-26 04:01:47,15.08816104,9.79e-05,53.2161,320.895,94.1452,265.9652,1.0005e-05,-1.29e-06,0.0,0 STARLINK-4755,1 53851U 22114AK  23116.16791302 -.00000129  00000-0  10005-4 0  9997,2 53851  53.2161 320.8950 0000979  94.1452 265.9652 15.08816104 34689,6917.953,95.439,540.496,539.141,0.0
53851.0,STARLINK-4755,PAYLOAD,2023-04-26 19:55:38,15.08865094,0.0001402,53.2158,317.9223,103.1022,257.0127,0.0013865,0.00021862,0.0,0 STARLINK-4755,1 53851U 22114AK  23116.83031078  .00021862  00000-0  13865-2 0  9999,2 53851  53.2158 317.9223 0001402 103.1022 257.0127 15.08865094 34783,6917.804,95.436,540.639,538.699,0.0
53851.0,STARLINK-4755,PAYLOAD,2023-04-27 13:24:54,15.0884938,0.0001031,53.2162,314.6487,105.2004,254.9102,0.00078999,0.0001231,0.0,0 STARLINK-4755,1 53851U 22114AK  23117.55895908  .00012310  00000-0  78999-3 0  9997,2 53851  53.2162 314.6487 0001031 105.2004 254.9102 15.08849380 34896,6917.852,95.437,540.43,539.003,0.0
53851.0,STARLINK-4755,PAYLOAD,2023-04-28 19:37:12,15.08849554,8.82e-05,53.2155,308.9979,101.2564,258.8528,8.5902e-05,1.08e-05,0.0,0 STARLINK-4755,1 53851U 22114AK  23118.81751022  .00001080  00000-0  85902-4 0  9990,2 53851  53.2155 308.9979 0000882 101.2564 258.8528 15.08849554 34540,6917.851,95.437,540.326,539.106,0.0
53851.0,STARLINK-4755,PAYLOAD,2023-04-29 11:31:04,15.08839475,0.0001161,53.2161,306.0262,110.6197,249.492,-4.4949e-05,-1.003e-05,0.0,0 STARLINK-4755,1 53851U 22114AK  23119.47991278 -.00001003  00000-0 -44949-4 0  9995,2 53851  53.2161 306.0262 0001161 110.6197 249.4920 15.08839475 35182,6917.882,95.438,540.55,538.944,0.0
53851.0,STARLINK-4755,PAYLOAD,2023-04-29 17:52:37,15.08840117,0.0001128,53.217,304.8366,112.7246,247.3865,8.1282e-06,-1.58e-06,0.0,0 STARLINK-4755,1 53851U 22114AK  23119.74487533 -.00000158  00000-0  81282-5 0  9990,2 53851  53.2170 304.8366 0001128 112.7246 247.3865 15.08840117 34688,6917.88,95.438,540.525,538.965,0.0
53851.0,STARLINK-4755,PAYLOAD,2023-04-30 11:21:51,15.08837473,0.0001167,53.2176,301.5655,110.5683,249.5434,9.4566e-05,1.217e-05,0.0,0 STARLINK-4755,1 53851U 22114AK  23120.47351324  .00001217  00000-0  94566-4 0  9994,2 53851  53.2176 301.5655 0001167 110.5683 249.5434 15.08837473 35333,6917.888,95.438,540.56,538.946,0.0
